{"type": "FeatureCollection", "features": [ {"type": "Feature", "properties": {"norad_id": 66816, "name": "STARLINK-36098", "group": "last-30-days", "lat": 30.805475243922732, "lon": -62.34652673843395, "alt_km": 298.5239435704416, "timestamp": "2025-12-11T18:59:44.811939+00:00", "meta": {"OBJECT_NAME": "STARLINK-36098", "OBJECT_ID": "2025-278AB", "EPOCH": "2025-12-11T06:00:02.999808", "MEAN_MOTION": 15.91396343, "ECCENTRICITY": 0.00017237, "INCLINATION": 42.9983, "RA_OF_ASC_NODE": 261.2307, "ARG_OF_PERICENTER": 272.4304, "MEAN_ANOMALY": 271.8764, "EPHEMERIS_TYPE": 0, "CLASSIFICATION_TYPE": "U", "NORAD_CAT_ID": 66816, "ELEMENT_SET_NO": 999, "REV_AT_EPOCH": 255, "BSTAR": -0.0041806122, "MEAN_MOTION_DOT": -0.01390561, "MEAN_MOTION_DDOT": 0.00054904327}, "tle": {"line1": "1 66816U 25278AB  25345.25003472 -.01390561  54904-3 -41806-2 0  9996", "line2": "2 66816  42.9983 261.2307 0001723 272.4304 271.8764 15.91396343  2551"}}, "geometry": {"type": "Point", "coordinates": [-62.34652673843395, 30.805475243922732]}}, {"type": "Feature", "properties": {"norad_id": 66817, "name": "STARLINK-35995", "group": "last-30-days", "lat": 33.377340295000096, "lon": -57.14904581825147, "alt_km": 298.1137590885701, "timestamp": "2025-12-11T18:59:44.811951+00:00", "meta": {"OBJECT_NAME": "STARLINK-35995", "OBJECT_ID": "2025-278AC", "EPOCH": "2025-12-11T06:00:02.999808", "MEAN_MOTION": 15.91461895, "ECCENTRICITY": 0.0001767, "INCLINATION": 42.9983, "RA_OF_ASC_NODE": 261.2179, "ARG_OF_PERICENTER": 271.2751, "MEAN_ANOMALY": 278.0261, "EPHEMERIS_TYPE": 0, "CLASSIFICATION_TYPE": "U", "NORAD_CAT_ID": 66817, "ELEMENT_SET_NO": 999, "REV_AT_EPOCH": 271, "BSTAR": -0.0042233072, "MEAN_MOTION_DOT": -0.01409325, "MEAN_MOTION_DDOT": 0.00056305113}, "tle": {"line1": "1 66817U 25278AC  25345.25003472 -.01409325  56305-3 -42233-2 0  9998", "line2": "2 66817  42.9983 261.2179 0001767 271.2751 278.0261 15.91461895  2714"}}, "geometry": {"type": "Point", "coordinates": [-57.14904581825147, 33.377340295000096]}}, {"type": "Feature", "properties": {"norad_id": 66818, "name": "STARLINK-35994", "group": "last-30-days", "lat": 32.277096267191006, "lon": -59.46183794896784, "alt_km": 298.3313056059733, "timestamp": "2025-12-11T18:59:44.811961+00:00", "meta": {"OBJECT_NAME": "STARLINK-35994", "OBJECT_ID": "2025-278AD", "EPOCH": "2025-12-11T06:00:02.999808", "MEAN_MOTION": 15.9142855, "ECCENTRICITY": 0.00016911, "INCLINATION": 42.9983, "RA_OF_ASC_NODE": 261.2236, "ARG_OF_PERICENTER": 269.0942, "MEAN_ANOMALY": 278.0316, "EPHEMERIS_TYPE": 0, "CLASSIFICATION_TYPE": "U", "NORAD_CAT_ID": 66818, "ELEMENT_SET_NO": 999, "REV_AT_EPOCH": 271, "BSTAR": -0.0042113641, "MEAN_MOTION_DOT": -0.01402974, "MEAN_MOTION_DDOT": 0.00055823115}, "tle": {"line1": "1 66818U 25278AD  25345.25003472 -.01402974  55823-3 -42114-2 0  9994", "line2": "2 66818  42.9983 261.2236 0001691 269.0942 278.0316 15.91428550  2714"}}, "geometry": {"type": "Point", "coordinates": [-59.46183794896784, 32.277096267191006]}}, {"type": "Feature", "properties": {"norad_id": 66819, "name": "STARLINK-35989", "group": "last-30-days", "lat": 34.4424786169705, "lon": -54.75689911133164, "alt_km": 297.9067181052833, "timestamp": "2025-12-11T18:59:44.811973+00:00", "meta": {"OBJECT_NAME": "STARLINK-35989", "OBJECT_ID": "2025-278AE", "EPOCH": "2025-12-11T06:00:02.999808", "MEAN_MOTION": 15.91498455, "ECCENTRICITY": 0.00017518, "INCLINATION": 42.9984, "RA_OF_ASC_NODE": 261.2124, "ARG_OF_PERICENTER": 270.4276, "MEAN_ANOMALY": 281.0656, "EPHEMERIS_TYPE": 0, "CLASSIFICATION_TYPE": "U", "NORAD_CAT_ID": 66819, "ELEMENT_SET_NO": 999, "REV_AT_EPOCH": 271, "BSTAR": -0.0042391979, "MEAN_MOTION_DOT": -0.01417211, "MEAN_MOTION_DDOT": 0.00056903941}, "tle": {"line1": "1 66819U 25278AE  25345.25003472 -.01417211  56904-3 -42392-2 0  9994", "line2": "2 66819  42.9984 261.2124 0001751 270.4276 281.0656 15.91498455  2717"}}, "geometry": {"type": "Point", "coordinates": [-54.75689911133164, 34.4424786169705]}}, {"type": "Feature", "properties": {"norad_id": 66820, "name": "KOMPSAT-7", "group": "last-30-days", "lat": -82.27618076770933, "lon": 13.480767206304646, "alt_km": 574.6165891798819, "timestamp": "2025-12-11T18:59:44.811983+00:00", "meta": {"OBJECT_NAME": "KOMPSAT-7", "OBJECT_ID": "2025-279A", "EPOCH": "2025-12-11T00:09:46.708704", "MEAN_MOTION": 14.98662486, "ECCENTRICITY": 0.00081984, "INCLINATION": 97.6407, "RA_OF_ASC_NODE": 290.9079, "ARG_OF_PERICENTER": 224.9199, "MEAN_ANOMALY": 135.1362, "EPHEMERIS_TYPE": 0, "CLASSIFICATION_TYPE": "U", "NORAD_CAT_ID": 66820, "ELEMENT_SET_NO": 999, "REV_AT_EPOCH": 139, "BSTAR": 0.00036088548, "MEAN_MOTION_DOT": 4.28e-05, "MEAN_MOTION_DDOT": 0}, "tle": {"line1": "1 66820U 25279A   25345.00679061  .00004280  00000+0  36089-3 0  9997", "line2": "2 66820  97.6407 290.9079 0008198 224.9199 135.1362 14.98662486  1393"}}, "geometry": {"type": "Point", "coordinates": [13.480767206304646, -82.27618076770933]}}, {"type": "Feature", "properties": {"norad_id": 66821, "name": "STARLINK-35966", "group": "last-30-days", "lat": 6.4698223473488925, "lon": -156.07482672188166, "alt_km": 322.4331491308112, "timestamp": "2025-12-11T18:59:44.811994+00:00", "meta": {"OBJECT_NAME": "STARLINK-35966", "OBJECT_ID": "2025-280A", "EPOCH": "2025-12-10T16:00:01.999584", "MEAN_MOTION": 15.87163122, "ECCENTRICITY": 0.00039131, "INCLINATION": 69.9939, "RA_OF_ASC_NODE": 204.7907, "ARG_OF_PERICENTER": 271.1294, "MEAN_ANOMALY": 158.5043, "EPHEMERIS_TYPE": 0, "CLASSIFICATION_TYPE": "U", "NORAD_CAT_ID": 66821, "ELEMENT_SET_NO": 999, "REV_AT_EPOCH": 256, "BSTAR": -0.0067612749, "MEAN_MOTION_DOT": -0.01557078, "MEAN_MOTION_DDOT": 0}, "tle": {"line1": "1 66821U 25280A   25344.66668981 -.01557078  00000+0 -67613-2 0  9997", "line2": "2 66821  69.9939 204.7907 0003913 271.1294 158.5043 15.87163122  2566"}}, "geometry": {"type": "Point", "coordinates": [-156.07482672188166, 6.4698223473488925]}}, {"type": "Feature", "properties": {"norad_id": 66822, "name": "STARLINK-35958", "group": "last-30-days", "lat": 8.202525432819096, "lon": -155.4341588773518, "alt_km": 322.1281914077508, "timestamp": "2025-12-11T18:59:44.812006+00:00", "meta": {"OBJECT_NAME": "STARLINK-35958", "OBJECT_ID": "2025-280B", "EPOCH": "2025-12-10T16:00:01.999584", "MEAN_MOTION": 15.87203288, "ECCENTRICITY": 0.00039141, "INCLINATION": 69.9939, "RA_OF_ASC_NODE": 204.789, "ARG_OF_PERICENTER": 271.5252, "MEAN_ANOMALY": 159.7958, "EPHEMERIS_TYPE": 0, "CLASSIFICATION_TYPE": "U", "NORAD_CAT_ID": 66822, "ELEMENT_SET_NO": 999, "REV_AT_EPOCH": 256, "BSTAR": -0.006752443, "MEAN_MOTION_DOT": -0.0155802, "MEAN_MOTION_DDOT": 0}, "tle": {"line1": "1 66822U 25280B   25344.66668981 -.01558020  00000+0 -67524-2 0  9997", "line2": "2 66822  69.9939 204.7890 0003914 271.5252 159.7958 15.87203288  2563"}}, "geometry": {"type": "Point", "coordinates": [-155.4341588773518, 8.202525432819096]}}, {"type": "Feature", "properties": {"norad_id": 66823, "name": "STARLINK-35957", "group": "last-30-days", "lat": 10.005886386406187, "lon": -154.76146451157237, "alt_km": 321.854080220367, "timestamp": "2025-12-11T18:59:44.812016+00:00", "meta": {"OBJECT_NAME": "STARLINK-35957", "OBJECT_ID": "2025-280C", "EPOCH": "2025-12-10T16:00:01.999584", "MEAN_MOTION": 15.87244205, "ECCENTRICITY": 0.00039284, "INCLINATION": 69.9938, "RA_OF_ASC_NODE": 204.7867, "ARG_OF_PERICENTER": 271.3861, "MEAN_ANOMALY": 161.7087, "EPHEMERIS_TYPE": 0, "CLASSIFICATION_TYPE": "U", "NORAD_CAT_ID": 66823, "ELEMENT_SET_NO": 999, "REV_AT_EPOCH": 256, "BSTAR": -0.0067558235, "MEAN_MOTION_DOT": -0.01561515, "MEAN_MOTION_DDOT": 0}, "tle": {"line1": "1 66823U 25280C   25344.66668981 -.01561515  00000+0 -67558-2 0  9998", "line2": "2 66823  69.9938 204.7867 0003928 271.3861 161.7087 15.87244205  2566"}}, "geometry": {"type": "Point", "coordinates": [-154.76146451157237, 10.005886386406187]}}, {"type": "Feature", "properties": {"norad_id": 66824, "name": "STARLINK-35896", "group": "last-30-days", "lat": 11.766636755104562, "lon": -154.09701495701472, "alt_km": 321.84683152771686, "timestamp": "2025-12-11T18:59:44.812026+00:00", "meta": {"OBJECT_NAME": "STARLINK-35896", "OBJECT_ID": "2025-280D", "EPOCH": "2025-12-10T18:00:02.000160", "MEAN_MOTION": 15.87016307, "ECCENTRICITY": 0.0003777, "INCLINATION": 69.9936, "RA_OF_ASC_NODE": 204.544, "ARG_OF_PERICENTER": 269.0036, "MEAN_ANOMALY": 281.9492, "EPHEMERIS_TYPE": 0, "CLASSIFICATION_TYPE": "U", "NORAD_CAT_ID": 66824, "ELEMENT_SET_NO": 999, "REV_AT_EPOCH": 258, "BSTAR": -0.0070024, "MEAN_MOTION_DOT": -0.01595429, "MEAN_MOTION_DDOT": 0}, "tle": {"line1": "1 66824U 25280D   25344.75002315 -.01595429  00000+0 -70024-2 0  9995", "line2": "2 66824  69.9936 204.5440 0003777 269.0036 281.9492 15.87016307  2587"}}, "geometry": {"type": "Point", "coordinates": [-154.09701495701472, 11.766636755104562]}}, {"type": "Feature", "properties": {"norad_id": 66825, "name": "STARLINK-35476", "group": "last-30-days", "lat": 13.688622934975053, "lon": -153.36072438250503, "alt_km": 321.4844606288898, "timestamp": "2025-12-11T18:59:44.812037+00:00", "meta": {"OBJECT_NAME": "STARLINK-35476", "OBJECT_ID": "2025-280E", "EPOCH": "2025-12-10T18:00:02.000160", "MEAN_MOTION": 15.87054454, "ECCENTRICITY": 0.0003729, "INCLINATION": 69.9936, "RA_OF_ASC_NODE": 204.5418, "ARG_OF_PERICENTER": 270.4103, "MEAN_ANOMALY": 282.4783, "EPHEMERIS_TYPE": 0, "CLASSIFICATION_TYPE": "U", "NORAD_CAT_ID": 66825, "ELEMENT_SET_NO": 999, "REV_AT_EPOCH": 243, "BSTAR": -0.0070194, "MEAN_MOTION_DOT": -0.0160143, "MEAN_MOTION_DDOT": 0}, "tle": {"line1": "1 66825U 25280E   25344.75002315 -.01601430  00000+0 -70194-2 0  9994", "line2": "2 66825  69.9936 204.5418 0003729 270.4103 282.4783 15.87054454  2439"}}, "geometry": {"type": "Point", "coordinates": [-153.36072438250503, 13.688622934975053]}}]}